{"fetched_at":"2026-03-29T16:36:15Z","count":15609,"tles":[{"name":"STARLINK-4761","line1":"1 53830U 22114N   26087.76558498  .00000381  00000+0  42045-4 0  9994","line2":"2 53830  53.2171 218.3130 0001414  92.5645 267.5509 15.08840102195715","category":"Starlink"}]}