{
  "norad_id": 53830,
  "name": "STARLINK-4761",
  "history": [
    {
      "epoch": "2026-03-28T18:22:26.542272Z",
      "apogee_km": 540.7218188642482,
      "perigee_km": 538.764335517606,
      "latitude_deg": -8.116391031070301e-06,
      "longitude_deg": 116.5210703016794,
      "height_km": 540.6824707988891,
      "semi_major_axis_km": 6917.880077190927,
      "eccentricity": 0.00014148,
      "inclination_deg": 53.2171,
      "raan_deg": 218.313,
      "arg_perigee_deg": 92.5645,
      "mean_anomaly_deg": 267.5509,
      "mean_motion_rev_day": 15.08840102
    }
  ]
}